1 40072U 14037D   20260.08493161  .00000085  00000-0  18422-4 0  9994
2 40072  98.4640  83.3815 0005964 194.2467 165.8576 14.81312510334667
1 40072U 14037D   20260.49022142  .00000086  00000-0  18540-4 0  9998
2 40072  98.4640  83.8093 0005996 192.9310 167.1748 14.81312599334648
1 40072U 14037D   20260.76041462  .00000084  00000-0  18275-4 0  9997
2 40072  98.4640  84.0946 0006012 192.0219 168.0849 14.81312639334688
1 40072U 14037D   20261.09815609  .00000081  00000-0  17929-4 0  9998
2 40072  98.4640  84.4511 0006038 190.8785 169.2297 14.81312714334811
1 40072U 14037D   20261.50344580  .00000077  00000-0  17407-4 0  9995
2 40072  98.4640  84.8790 0006071 189.5673 170.5423 14.81312810334792
1 40072U 14037D   20261.77363896  .00000070  00000-0  16530-4 0  9994
2 40072  98.4640  85.1642 0006080 188.6597 171.4510 14.81312843334835
1 40072U 14037D   20262.11138036  .00000064  00000-0  15759-4 0  9994
2 40072  98.4640  85.5208 0006099 187.5164 172.5957 14.81312928334960
1 40072U 14037D   20262.44912177  .00000056  00000-0  14707-4 0  9999
2 40072  98.4640  85.8773 0006128 186.3850 173.7284 14.81312994334938
1 40072U 14037D   20262.58421830  .00000054  00000-0  14525-4 0  9991
2 40072  98.4640  86.0200 0006139 185.9476 174.1663 14.81313040334958
1 40072U 14037D   20263.12460448  .00000052  00000-0  14234-4 0  9995
2 40072  98.4641  86.5904 0006179 184.1083 176.0078 14.81313202335114
1 40072U 14037D   20263.59744241  .00000041  00000-0  12791-4 0  9996
2 40072  98.4641  87.0896 0006213 182.5590 177.5590 14.81313268335100
1 40072U 14037D   20264.47556988  .00000049  00000-0  13872-4 0  9992
2 40072  98.4641  88.0167 0006267 179.7447 180.3768 14.81313508335319
1 40072U 14037D   20264.54311813  .00000049  00000-0  13812-4 0  9990
2 40072  98.4641  88.0880 0006269 179.5411 180.5806 14.81313523335246
1 40072U 14037D   20265.48879375  .00000061  00000-0  15378-4 0  9999
2 40072  98.4641  89.0864 0006315 176.5628 183.5627 14.81313735335461
1 40072U 14037D   20265.55634197  .00000062  00000-0  15560-4 0  9992
2 40072  98.4642  89.1577 0006327 176.3766 183.7492 14.81313762335392
1 40072U 14037D   20266.56956559  .00000071  00000-0  16651-4 0  9995
2 40072  98.4641  90.2274 0006416 173.2530 186.8769 14.81314012335549
1 40072U 14037D   20266.56956559  .00000071  00000-0  16651-4 0  9995
2 40072  98.4641  90.2274 0006416 173.2530 186.8769 14.81314012335628
1 40072U 14037D   20267.44769261  .00000078  00000-0  17553-4 0  9994
2 40072  98.4641  91.1544 0006479 170.4773 189.6562 14.81314281335670
1 40072U 14037D   20268.46091584  .00000096  00000-0  19917-4 0  9999
2 40072  98.4641  92.2241 0006550 167.2942 192.8435 14.81314704335820
1 40072U 14037D   20269.06884971  .00000100  00000-0  20333-4 0  9996
2 40072  98.4641  92.8660 0006594 165.3805 194.7597 14.81314900335992
1 40072U 14037D   20269.47413889  .00000117  00000-0  22564-4 0  9993
2 40072  98.4640  93.2938 0006619 164.1864 195.9555 14.81315105335977
1 40072U 14037D   20269.60923526  .00000120  00000-0  22931-4 0  9994
2 40072  98.4640  93.4365 0006630 163.7825 196.3599 14.81315163335997
1 40072U 14037D   20270.08207259  .00000125  00000-0  23563-4 0  9993
2 40072  98.4640  93.9357 0006659 162.3510 197.7934 14.81315312336142
1 40072U 14037D   20270.48736168  .00000133  00000-0  24586-4 0  9998
2 40072  98.4640  94.3635 0006677 161.1858 198.9601 14.81315456336129
1 40072U 14037D   20270.75755435  .00000137  00000-0  25151-4 0  9999
2 40072  98.4640  94.6488 0006698 160.3868 199.7601 14.81315551336162
1 40072U 14037D   20271.09529520  .00000138  00000-0  25262-4 0  9995
2 40072  98.4639  95.0053 0006722 159.3691 200.7792 14.81315656336297
1 40072U 14037D   20271.50058420  .00000148  00000-0  26517-4 0  9992
2 40072  98.4639  95.4332 0006748 158.2093 201.9406 14.81315823336272
1 40072U 14037D   20271.77077678  .00000149  00000-0  26665-4 0  9992
2 40072  98.4639  95.7184 0006768 157.4045 202.7465 14.81315927336314
1 40072U 14037D   20272.10851748  .00000148  00000-0  26551-4 0  9991
2 40072  98.4638  96.0750 0006789 156.3776 203.7747 14.81316075336441
1 40072U 14037D   20272.44625805  .00000183  00000-0  31010-4 0  9996
2 40072  98.4638  96.4316 0006814 155.3944 204.7593 14.81316444336415
1 40072U 14037D   20272.78399870  .00000170  00000-0  29332-4 0  9993
2 40072  98.4638  96.7881 0006838 154.3668 205.7883 14.81316523336469
1 40072U 14037D   20273.45947982  .00000167  00000-0  29011-4 0  9991
2 40072  98.4637  97.5012 0006881 152.3446 207.8132 14.81316862336560
1 40072U 14037D   20273.59457610  .00000152  00000-0  26996-4 0  9993
2 40072  98.4637  97.6438 0006890 151.9392 208.2192 14.81316824336589
1 40072U 14037D   20274.54024945  .00000152  00000-0  27074-4 0  9998
2 40072  98.4637  98.6422 0006940 149.1140 211.0480 14.81317265336727
1 40072U 14037D   20274.60779754  .00000152  00000-0  27051-4 0  9995
2 40072  98.4637  98.7135 0006944 148.9150 211.2473 14.81317293336737
1 40072U 14037D   20274.94553798  .00000148  00000-0  26544-4 0  9991
2 40072  98.4637  99.0701 0006965 147.9283 212.2353 14.81317415336867
1 40072U 14037D   20275.55347069  .00000139  00000-0  25388-4 0  9996
2 40072  98.4637  99.7119 0006992 146.2043 213.9614 14.81317579336873
1 40072U 14037D   20275.75611489  .00000139  00000-0  25348-4 0  9994
2 40072  98.4637  99.9258 0007008 145.6449 214.5216 14.81317645336904
1 40072U 14037D   20276.09385519  .00000139  00000-0  25313-4 0  9996
2 40072  98.4637 100.2824 0007024 144.6606 215.5071 14.81317774337039
1 40072U 14037D   20276.56669159  .00000128  00000-0  23894-4 0  9993
2 40072  98.4637 100.7816 0007050 143.3832 216.7862 14.81317892337022
1 40072U 14037D   20276.76933574  .00000125  00000-0  23550-4 0  9996
2 40072  98.4637 100.9955 0007063 142.7861 217.3840 14.81317945337052
1 40072U 14037D   20277.10707592  .00000123  00000-0  23329-4 0  9996
2 40072  98.4637 101.3521 0007082 141.7957 218.3757 14.81318092337188
1 40072U 14037D   20277.51236419  .00000105  00000-0  21016-4 0  9997
2 40072  98.4637 101.7799 0007110 140.7091 219.4637 14.81318159337160
1 40072U 14037D   20277.57991223  .00000104  00000-0  20841-4 0  9998
2 40072  98.4637 101.8512 0007115 140.5157 219.6573 14.81318181337177
1 40072U 14037D   20278.12029641  .00000097  00000-0  19939-4 0  9993
2 40072  98.4637 102.4217 0007149 138.9256 221.2494 14.81318393337338
1 40072U 14037D   20278.52558456  .00000086  00000-0  18622-4 0  9994
2 40072  98.4637 102.8496 0007176 137.7961 222.3804 14.81318513337310
1 40072U 14037D   20278.79577663  .00000084  00000-0  18263-4 0  9993
2 40072  98.4637 103.1349 0007194 136.9990 223.1784 14.81318596337355
1 40072U 14037D   20279.47125677  .00000082  00000-0  18100-4 0  9991
2 40072  98.4637 103.8480 0007224 135.0628 225.1168 14.81318832337531
1 40072U 14037D   20279.53880476  .00000086  00000-0  18548-4 0  9993
2 40072  98.4637 103.9193 0007223 134.8428 225.3371 14.81318880337460
1 40072U 14037D   20280.07918874  .00000096  00000-0  19874-4 0  9992
2 40072  98.4637 104.4898 0007248 133.2619 226.9198 14.81319111337541
1 40072U 14037D   20280.48447664  .00000112  00000-0  21948-4 0  9995
2 40072  98.4637 104.9177 0007260 132.1416 228.0413 14.81319326337689
1 40072U 14037D   20280.75466858  .00000110  00000-0  21668-4 0  9998
2 40072  98.4637 105.2030 0007276 131.4455 228.7382 14.81319380337641
1 40072U 14037D   20281.09240848  .00000114  00000-0  22156-4 0  9992
2 40072  98.4637 105.5595 0007292 130.4990 229.6858 14.81319494337690
1 40072U 14037D   20281.49769636  .00000112  00000-0  21932-4 0  9996
2 40072  98.4636 105.9874 0007302 129.3648 230.8211 14.81319585337836
1 40072U 14037D   20281.76788819  .00000115  00000-0  22282-4 0  9992
2 40072  98.4637 106.2726 0007320 128.6871 231.4996 14.81319679337793
1 40072U 14037D   20282.51091573  .00000107  00000-0  21237-4 0  9990
2 40072  98.4636 107.0571 0007352 126.6686 233.5202 14.81319889337905
1 40072U 14037D   20282.57846367  .00000107  00000-0  21243-4 0  9992
2 40072  98.4636 107.1284 0007356 126.5000 233.6890 14.81319916337994
1 40072U 14037D   20283.52413487  .00000096  00000-0  19887-4 0  9999
2 40072  98.4636 108.1267 0007399 123.8586 236.3330 14.81320225338054
1 40072U 14037D   20284.06451832  .00000093  00000-0  19406-4 0  9999
2 40072  98.4635 108.6972 0007429 122.3607 237.8323 14.81320414338219
1 40072U 14037D   20284.53735378  .00000098  00000-0  20061-4 0  9995
2 40072  98.4635 109.1964 0007443 121.0385 239.1557 14.81320600338201
1 40072U 14037D   20285.07773712  .00000103  00000-0  20781-4 0  9995
2 40072  98.4635 109.7669 0007463 119.4987 240.6969 14.81320793338364
1 40072U 14037D   20285.48302459  .00000104  00000-0  20872-4 0  9998
2 40072  98.4634 110.1948 0007469 118.3462 241.8503 14.81320902338348
1 40072U 14037D   20285.55057247  .00000107  00000-0  21275-4 0  9999
2 40072  98.4634 110.2661 0007470 118.2016 241.9950 14.81320947338354
1 40072U 14037D   20286.09095566  .00000113  00000-0  21998-4 0  9994
2 40072  98.4634 110.8366 0007485 116.6784 243.5194 14.81321113338514
1 40072U 14037D   20286.49624302  .00000113  00000-0  22061-4 0  9996
2 40072  98.4634 111.2645 0007491 115.5550 244.6436 14.81321214338495
1 40072U 14037D   20286.56379088  .00000115  00000-0  22269-4 0  9994
2 40072  98.4634 111.3358 0007493 115.4237 244.7750 14.81321250338502
1 40072U 14037D   20287.10417391  .00000116  00000-0  22472-4 0  9992
2 40072  98.4633 111.9063 0007510 113.9316 246.2682 14.81321409338665
1 40072U 14037D   20287.57700896  .00000114  00000-0  22163-4 0  9993
2 40072  98.4633 112.4055 0007520 112.6722 247.5284 14.81321565338744
1 40072U 14037D   20288.52267889  .00000102  00000-0  20658-4 0  9993
2 40072  98.4632 113.4039 0007554 110.1636 250.0388 14.81321886338795
1 40072U 14037D   20288.52267889  .00000102  00000-0  20658-4 0  9993
2 40072  98.4632 113.4039 0007554 110.1636 250.0388 14.81321886338885
1 40072U 14037D   20289.46834864  .00000098  00000-0  20162-4 0  9994
2 40072  98.4633 114.4022 0007583 107.5866 252.6174 14.81322223338939
